[{"OBJECT_NAME":"STARLINK-3253","OBJECT_ID":"2022-005AJ","EPOCH":"2026-03-09T21:47:19.632768","MEAN_MOTION":15.08832242,"ECCENTRICITY":0.00014395,"INCLINATION":53.2174,"RA_OF_ASC_NODE":297.9407,"ARG_OF_PERICENTER":90.4272,"MEAN_ANOMALY":269.6885,"EPHEMERIS_TYPE":0,"CLASSIFICATION_TYPE":"U","NORAD_CAT_ID":51136,"ELEMENT_SET_NO":999,"REV_AT_EPOCH":22876,"BSTAR":6.534797e-6,"MEAN_MOTION_DOT":-1.84e-6,"MEAN_MOTION_DDOT":0},{"OBJECT_NAME":"CZ-2D R\/B","OBJECT_ID":"2010-027B","EPOCH":"2026-03-09T19:01:31.304352","MEAN_MOTION":15.02332282,"ECCENTRICITY":0.00475082,"INCLINATION":97.9913,"RA_OF_ASC_NODE":95.0303,"ARG_OF_PERICENTER":252.3591,"MEAN_ANOMALY":107.2442,"EPHEMERIS_TYPE":0,"CLASSIFICATION_TYPE":"U","NORAD_CAT_ID":36597,"ELEMENT_SET_NO":999,"REV_AT_EPOCH":85595,"BSTAR":0.00022535675,"MEAN_MOTION_DOT":2.983e-5,"MEAN_MOTION_DDOT":0}]
